{"fetched_at":"2026-07-14T06:34:46.189Z","source":"https://celestrak.org/NORAD/elements/gp.php?NAME=HAWK&FORMAT=JSON","constellation":"hawkeye-360","records":[{"OBJECT_NAME":"HAWK-7B","OBJECT_ID":"2023-054R","EPOCH":"2026-07-13T16:57:57.406752","CLASSIFICATION_TYPE":"U","MEAN_MOTION":15.27620769,"ECCENTRICITY":0.0001472,"INCLINATION":97.2694,"RA_OF_ASC_NODE":79.6434,"ARG_OF_PERICENTER":20.43,"MEAN_ANOMALY":339.6998,"EPHEMERIS_TYPE":0,"NORAD_CAT_ID":56193,"ELEMENT_SET_NO":999,"REV_AT_EPOCH":18107,"BSTAR":0.00011691,"MEAN_MOTION_DOT":0.00003084,"MEAN_MOTION_DDOT":0},{"OBJECT_NAME":"HAWK-7C","OBJECT_ID":"2023-054Y","EPOCH":"2026-07-13T15:23:27.485376","CLASSIFICATION_TYPE":"U","MEAN_MOTION":15.2762374,"ECCENTRICITY":0.0001043,"INCLINATION":97.2675,"RA_OF_ASC_NODE":80.3406,"ARG_OF_PERICENTER":3.4458,"MEAN_ANOMALY":356.6789,"EPHEMERIS_TYPE":0,"NORAD_CAT_ID":56200,"ELEMENT_SET_NO":999,"REV_AT_EPOCH":18106,"BSTAR":0.00012101,"MEAN_MOTION_DOT":0.00003195,"MEAN_MOTION_DDOT":0},{"OBJECT_NAME":"HAWK-8A","OBJECT_ID":"2024-066B","EPOCH":"2026-07-13T05:34:54.069600","CLASSIFICATION_TYPE":"U","MEAN_MOTION":14.99282951,"ECCENTRICITY":0.0002852,"INCLINATION":45.5951,"RA_OF_ASC_NODE":141.9657,"ARG_OF_PERICENTER":211.4125,"MEAN_ANOMALY":148.6586,"EPHEMERIS_TYPE":0,"NORAD_CAT_ID":59443,"ELEMENT_SET_NO":999,"REV_AT_EPOCH":12374,"BSTAR":0.000067177,"MEAN_MOTION_DOT":0.00000601,"MEAN_MOTION_DDOT":0},{"OBJECT_NAME":"HAWK-8B","OBJECT_ID":"2024-066D","EPOCH":"2026-07-13T07:11:31.758432","CLASSIFICATION_TYPE":"U","MEAN_MOTION":14.99279115,"ECCENTRICITY":0.00030004,"INCLINATION":45.6177,"RA_OF_ASC_NODE":143.5948,"ARG_OF_PERICENTER":215.4041,"MEAN_ANOMALY":144.6642,"EPHEMERIS_TYPE":0,"NORAD_CAT_ID":59445,"ELEMENT_SET_NO":999,"REV_AT_EPOCH":12374,"BSTAR":0.000043823576,"MEAN_MOTION_DOT":0.00000312,"MEAN_MOTION_DDOT":0},{"OBJECT_NAME":"HAWK-9A","OBJECT_ID":"2024-066E","EPOCH":"2026-07-13T06:08:18.869280","CLASSIFICATION_TYPE":"U","MEAN_MOTION":14.99211985,"ECCENTRICITY":0.00026089,"INCLINATION":45.6092,"RA_OF_ASC_NODE":142.4861,"ARG_OF_PERICENTER":197.2574,"MEAN_ANOMALY":162.8219,"EPHEMERIS_TYPE":0,"NORAD_CAT_ID":59446,"ELEMENT_SET_NO":999,"REV_AT_EPOCH":12374,"BSTAR":0.00007615168,"MEAN_MOTION_DOT":0.00000711,"MEAN_MOTION_DDOT":0},{"OBJECT_NAME":"HAWK-9C","OBJECT_ID":"2024-066G","EPOCH":"2026-07-13T18:56:20.207328","CLASSIFICATION_TYPE":"U","MEAN_MOTION":14.99212032,"ECCENTRICITY":0.0003151,"INCLINATION":45.6071,"RA_OF_ASC_NODE":138.8251,"ARG_OF_PERICENTER":184.1347,"MEAN_ANOMALY":175.9509,"EPHEMERIS_TYPE":0,"NORAD_CAT_ID":59448,"ELEMENT_SET_NO":999,"REV_AT_EPOCH":12382,"BSTAR":0.000079287,"MEAN_MOTION_DOT":0.00000749,"MEAN_MOTION_DDOT":0},{"OBJECT_NAME":"HAWK-8C","OBJECT_ID":"2024-066H","EPOCH":"2026-07-12T21:35:03.458976","CLASSIFICATION_TYPE":"U","MEAN_MOTION":14.99286186,"ECCENTRICITY":0.00026202,"INCLINATION":45.6071,"RA_OF_ASC_NODE":144.6842,"ARG_OF_PERICENTER":220.9584,"MEAN_ANOMALY":139.1101,"EPHEMERIS_TYPE":0,"NORAD_CAT_ID":59449,"ELEMENT_SET_NO":999,"REV_AT_EPOCH":12368,"BSTAR":0.000069623355,"MEAN_MOTION_DOT":0.00000631,"MEAN_MOTION_DDOT":0},{"OBJECT_NAME":"HAWK-9B","OBJECT_ID":"2024-066J","EPOCH":"2026-07-13T06:08:44.111040","CLASSIFICATION_TYPE":"U","MEAN_MOTION":14.99213014,"ECCENTRICITY":0.0002614,"INCLINATION":45.6132,"RA_OF_ASC_NODE":143.4216,"ARG_OF_PERICENTER":173.9265,"MEAN_ANOMALY":186.1649,"EPHEMERIS_TYPE":0,"NORAD_CAT_ID":59450,"ELEMENT_SET_NO":999,"REV_AT_EPOCH":12374,"BSTAR":0.000077491,"MEAN_MOTION_DOT":0.00000727,"MEAN_MOTION_DDOT":0},{"OBJECT_NAME":"HAWK-10A","OBJECT_ID":"2024-149CA","EPOCH":"2026-07-13T18:44:01.985856","CLASSIFICATION_TYPE":"U","MEAN_MOTION":14.96591152,"ECCENTRICITY":0.0003289,"INCLINATION":97.6892,"RA_OF_ASC_NODE":270.2353,"ARG_OF_PERICENTER":10.2735,"MEAN_ANOMALY":349.8553,"EPHEMERIS_TYPE":0,"NORAD_CAT_ID":60540,"ELEMENT_SET_NO":999,"REV_AT_EPOCH":10396,"BSTAR":0.000035123,"MEAN_MOTION_DOT":0.00000343,"MEAN_MOTION_DDOT":0},{"OBJECT_NAME":"HAWK-10B","OBJECT_ID":"2024-149CF","EPOCH":"2026-07-13T18:43:50.041056","CLASSIFICATION_TYPE":"U","MEAN_MOTION":14.96590206,"ECCENTRICITY":0.0005631,"INCLINATION":97.6811,"RA_OF_ASC_NODE":269.5632,"ARG_OF_PERICENTER":19.5426,"MEAN_ANOMALY":340.601,"EPHEMERIS_TYPE":0,"NORAD_CAT_ID":60545,"ELEMENT_SET_NO":999,"REV_AT_EPOCH":10396,"BSTAR":0.000030446,"MEAN_MOTION_DOT":0.00000289,"MEAN_MOTION_DDOT":0},{"OBJECT_NAME":"HAWK-10C","OBJECT_ID":"2024-149DM","EPOCH":"2026-07-13T18:44:18.940128","CLASSIFICATION_TYPE":"U","MEAN_MOTION":14.96588897,"ECCENTRICITY":0.0002803,"INCLINATION":97.6729,"RA_OF_ASC_NODE":268.8753,"ARG_OF_PERICENTER":356.7177,"MEAN_ANOMALY":3.4026,"EPHEMERIS_TYPE":0,"NORAD_CAT_ID":60575,"ELEMENT_SET_NO":999,"REV_AT_EPOCH":10396,"BSTAR":0.000025148,"MEAN_MOTION_DOT":0.00000229,"MEAN_MOTION_DDOT":0},{"OBJECT_NAME":"HAWK-11B","OBJECT_ID":"2024-247C","EPOCH":"2026-07-13T06:39:59.692608","CLASSIFICATION_TYPE":"U","MEAN_MOTION":15.30650151,"ECCENTRICITY":0.00032493,"INCLINATION":45.0141,"RA_OF_ASC_NODE":146.6934,"ARG_OF_PERICENTER":10.0413,"MEAN_ANOMALY":350.0536,"EPHEMERIS_TYPE":0,"NORAD_CAT_ID":62379,"ELEMENT_SET_NO":999,"REV_AT_EPOCH":8700,"BSTAR":0.00015727022,"MEAN_MOTION_DOT":0.00004445,"MEAN_MOTION_DDOT":0},{"OBJECT_NAME":"HAWK-11C","OBJECT_ID":"2024-247E","EPOCH":"2026-07-13T20:45:08.752896","CLASSIFICATION_TYPE":"U","MEAN_MOTION":15.30652704,"ECCENTRICITY":0.0004101,"INCLINATION":45.0027,"RA_OF_ASC_NODE":142.8073,"ARG_OF_PERICENTER":1.8611,"MEAN_ANOMALY":358.2288,"EPHEMERIS_TYPE":0,"NORAD_CAT_ID":62381,"ELEMENT_SET_NO":999,"REV_AT_EPOCH":8709,"BSTAR":0.00016109,"MEAN_MOTION_DOT":0.00004561,"MEAN_MOTION_DDOT":0},{"OBJECT_NAME":"HAWK-11A","OBJECT_ID":"2024-247F","EPOCH":"2026-07-13T05:05:29.002272","CLASSIFICATION_TYPE":"U","MEAN_MOTION":15.30642054,"ECCENTRICITY":0.0003711,"INCLINATION":44.9921,"RA_OF_ASC_NODE":145.7169,"ARG_OF_PERICENTER":358.501,"MEAN_ANOMALY":1.5862,"EPHEMERIS_TYPE":0,"NORAD_CAT_ID":62382,"ELEMENT_SET_NO":999,"REV_AT_EPOCH":8699,"BSTAR":0.00014643,"MEAN_MOTION_DOT":0.00004117,"MEAN_MOTION_DDOT":0},{"OBJECT_NAME":"HAWK-12C","OBJECT_ID":"2025-138A","EPOCH":"2026-07-13T12:52:09.206688","CLASSIFICATION_TYPE":"U","MEAN_MOTION":15.18398063,"ECCENTRICITY":0.0015407,"INCLINATION":97.4347,"RA_OF_ASC_NODE":196.5357,"ARG_OF_PERICENTER":56.3829,"MEAN_ANOMALY":303.8873,"EPHEMERIS_TYPE":0,"NORAD_CAT_ID":64621,"ELEMENT_SET_NO":999,"REV_AT_EPOCH":5786,"BSTAR":0.0001181,"MEAN_MOTION_DOT":0.00002367,"MEAN_MOTION_DDOT":0},{"OBJECT_NAME":"HAWK-12B","OBJECT_ID":"2025-138B","EPOCH":"2026-07-13T12:52:24.199680","CLASSIFICATION_TYPE":"U","MEAN_MOTION":15.18397469,"ECCENTRICITY":0.0014286,"INCLINATION":97.447,"RA_OF_ASC_NODE":197.2266,"ARG_OF_PERICENTER":52.5565,"MEAN_ANOMALY":307.6966,"EPHEMERIS_TYPE":0,"NORAD_CAT_ID":64622,"ELEMENT_SET_NO":999,"REV_AT_EPOCH":5786,"BSTAR":0.0001165,"MEAN_MOTION_DOT":0.00002333,"MEAN_MOTION_DDOT":0}]}
