HAWK-7B                 
1 56193U 23054R   26194.70691443  .00003084  00000+0  11691-3 0  9999
2 56193  97.2694  79.6434 0001472  20.4300 339.6998 15.27620769181078
HAWK-7C                 
1 56200U 23054Y   26194.64129034  .00003195  00000+0  12101-3 0  9993
2 56200  97.2675  80.3406 0001043   3.4458 356.6789 15.27623740181061
HAWK-8A                 
1 59443U 24066B   26194.23257025  .00000601  00000+0  67177-4 0  9999
2 59443  45.5951 141.9657 0002852 211.4125 148.6586 14.99282951123747
HAWK-8B                 
1 59445U 24066D   26194.29967313  .00000312  00000+0  43824-4 0  9997
2 59445  45.6177 143.5948 0003000 215.4041 144.6642 14.99279115123745
HAWK-9A                 
1 59446U 24066E   26194.25577395  .00000711  00000+0  76152-4 0  9994
2 59446  45.6092 142.4861 0002608 197.2574 162.8219 14.99211985123748
HAWK-9C                 
1 59448U 24066G   26194.78912277  .00000749  00000+0  79287-4 0  9999
2 59448  45.6071 138.8251 0003151 184.1347 175.9509 14.99212032123826
HAWK-8C                 
1 59449U 24066H   26193.89934559  .00000631  00000+0  69623-4 0  9991
2 59449  45.6071 144.6842 0002620 220.9584 139.1101 14.99286186123685
HAWK-9B                 
1 59450U 24066J   26194.25606610  .00000727  00000+0  77491-4 0  9996
2 59450  45.6132 143.4216 0002614 173.9265 186.1649 14.99213014123749
HAWK-10A                
1 60540U 24149CA  26194.78057854  .00000343  00000+0  35123-4 0  9998
2 60540  97.6892 270.2353 0003289  10.2735 349.8553 14.96591152103969
HAWK-10B                
1 60545U 24149CF  26194.78044029  .00000289  00000+0  30446-4 0  9995
2 60545  97.6811 269.5632 0005631  19.5426 340.6010 14.96590206103964
HAWK-10C                
1 60575U 24149DM  26194.78077477  .00000229  00000+0  25148-4 0  9998
2 60575  97.6729 268.8753 0002803 356.7177   3.4026 14.96588897103962
HAWK-11B                
1 62379U 24247C   26194.27777422  .00004445  00000+0  15727-3 0  9997
2 62379  45.0141 146.6934 0003249  10.0413 350.0536 15.30650151 87008
HAWK-11C                
1 62381U 24247E   26194.86468464  .00004561  00000+0  16109-3 0  9992
2 62381  45.0027 142.8073 0004101   1.8611 358.2288 15.30652704 87091
HAWK-11A                
1 62382U 24247F   26194.21214123  .00004117  00000+0  14643-3 0  9991
2 62382  44.9921 145.7169 0003711 358.5010   1.5862 15.30642054 86993
HAWK-12C                
1 64621U 25138A   26194.53621767  .00002367  00000+0  11810-3 0  9998
2 64621  97.4347 196.5357 0015407  56.3829 303.8873 15.18398063 57863
HAWK-12B                
1 64622U 25138B   26194.53639120  .00002333  00000+0  11650-3 0  9996
2 64622  97.4470 197.2266 0014286  52.5565 307.6966 15.18397469 57861
